FALCON 9 DEB            
1 53751U 22107BD  22280.77166803  .01177339  91868-3  10330-2 0  9990
2 53751  53.2064 106.5906 0009056 314.9141  45.1160 16.12557385  5222
FALCON 9 DEB            
1 53752U 22107BE  22281.49944037  .00797472  34349-3  99103-3 0  9996
2 53752  53.2025 103.3270 0008405 342.6054  17.4692 16.07146906  5349
FALCON 9 DEB            
1 53753U 22107BF  22280.78134771  .01173885  89143-3  11049-2 0  9995
2 53753  53.2004 106.6497 0009812 319.4989  40.5316 16.11498619  5229
SHERPA-LTC2             
1 53754U 22107BG  22281.06893056  .00143074  18400-4  48404-3 0  9997
2 53754  53.2125 106.3907 0033523  65.9193 294.5335 15.88748222  5260
FALCON 9 DEB            
1 53755U 22107BH  22280.88116253  .00899518  48634-3  82713-3 0  9997
2 53755  53.2029 105.8290 0008732 311.9688  48.0604 16.11774757  5248
FALCON 9 DEB            
1 53756U 22107BJ  22281.48195046  .01949661  11804-4  99028-3 0  9995
2 53756  53.1999 102.4550 0010570 307.0748  52.9324 16.19757518  5351
STARLINK-4718           
1 53773U 22111A   22280.91667824 -.01210692  00000+0 -13517-1 0  9999
2 53773  53.2174 134.3028 0001583 142.9951 211.6528 15.64881434  4157
STARLINK-4719           
1 53774U 22111B   22280.91667824 -.01204709  00000+0 -13435-1 0  9991
2 53774  53.2175 134.3008 0001356 138.1434 217.3459 15.64898063  4150
STARLINK-4722           
1 53775U 22111C   22281.58334491  .00005366  00000+0  42663-4 0  9990
2 53775  53.2152 130.8938 0001347 139.7866  84.1457 15.73177471  4268
STARLINK-4708           
1 53776U 22111D   22280.91667824 -.00000961  00000+0 -24335-5 0  9991
2 53776  53.2138 134.1987 0001436 121.6381 283.1864 15.73187501  4151
STARLINK-4664           
1 53777U 22111E   22281.25001157 -.00134112  00000+0 -96269-3 0  9990
2 53777  53.2150 132.5434 0001228 127.0563   9.0874 15.73290478  4217
STARLINK-4709           
1 53778U 22111F   22281.25001157 -.00109103  00000+0 -78198-3 0  9994
2 53778  53.2146 132.5463 0001209 127.9046   6.4761 15.73232298  4211
STARLINK-4706           
1 53779U 22111G   22281.58334491  .00057696  00000+0  41187-3 0  9996
2 53779  53.2152 130.8915 0001322 127.7256  97.9350 15.73246248  4263
STARLINK-4678           
1 53780U 22111H   22281.25001157 -.00058543  00000+0 -41527-3 0  9994
2 53780  53.2145 132.5475 0001463 141.7590 353.8053 15.73218351  4213
STARLINK-4462           
1 53781U 22111J   22281.58334491  .00083586  00000+0  59487-3 0  9998
2 53781  53.2151 130.8910 0001798 146.7547  80.6434 15.73167667  4260
STARLINK-4679           
1 53782U 22111K   22281.58334491 -.00069183  00000+0 -49188-3 0  9995
2 53782  53.2150 130.8928 0001786 142.8621  83.4463 15.73231213  4268
STARLINK-4536           
1 53783U 22111L   22281.58334491  .00011035  00000+0  82849-4 0  9999
2 53783  53.2150 130.8883 0001764 140.6060  88.0116 15.73225631  4261
STARLINK-4687           
1 53784U 22111M   22280.91667824 -.00010327  00000+0 -69227-4 0  9995
2 53784  53.2151 134.1923 0001525 140.3717 268.5643 15.73207184  1301
STARLINK-4638           
1 53785U 22111N   22281.58334491  .00015291  00000+0  69873-4 0  9991
2 53785  53.2029 129.1493 0006852 332.9930  10.8828 15.84024755  4282
STARLINK-4631           
1 53786U 22111P   22281.58334491  .00101040  00000+0  71748-3 0  9993
2 53786  53.2139 130.8866 0001571 141.5045  86.5334 15.73141742  4266
STARLINK-4743           
1 53787U 22111Q   22281.58334491  .00011536  00000+0  86529-4 0  9998
2 53787  53.2151 130.8824 0002032 147.6732  83.3988 15.73192282  4263
STARLINK-4744           
1 53788U 22111R   22281.58334491  .00014658  00000+0  66030-4 0  9992
2 53788  53.2029 129.1333 0006831 331.9248  19.8249 15.84374740  4284
STARLINK-4666           
1 53789U 22111S   22280.91667824 -.00028734  00000+0 -20084-3 0  9998
2 53789  53.2149 134.1810 0001105  72.5348 341.8576 15.73220274  4159
STARLINK-4734           
1 53790U 22111T   22280.91667824  .00086096  00000+0  61294-3 0  9991
2 53790  53.2174 134.1870 0001525 131.8316 280.6821 15.73148135  1307
STARLINK U              
1 53791U 22111U   22280.94976625  .00197167  00000+0  73899-3 0  9993
2 53791  53.2024 132.2729 0007154 331.8840  28.1799 15.86792936  4267
STARLINK-4739           
1 53792U 22111V   22281.25001157 -.00067405  00000+0 -47895-3 0  9998
2 53792  53.2146 132.5321 0001823 144.9099 357.7873 15.73234577  4217
STARLINK-4728           
1 53793U 22111W   22280.91667824 -.00027563  00000+0 -19232-3 0  9995
2 53793  53.2155 134.1798 0001192 100.4331 315.0693 15.73235633  4153
STARLINK-4730           
1 53794U 22111X   22280.91667824 -.00049335  00000+0 -34871-3 0  9993
2 53794  53.2146 134.1788 0001298 126.3724 288.5984 15.73230005  4158
STARLINK-4742           
1 53795U 22111Y   22281.25001157 -.00082645  00000+0 -58954-3 0  9992
2 53795  53.2146 132.5275 0001786 161.6855 343.3812 15.73225452  4218
STARLINK Z              
1 53796U 22111Z   22280.88528089  .00193730  00000+0  72478-3 0  9992
2 53796  53.2020 132.5799 0006566 329.3821  30.6820 15.86845448  4254
STARLINK-4723           
1 53797U 22111AA  22281.58334491  .00069109  00000+0  49398-3 0  9990
2 53797  53.2154 130.8751 0001085 118.7019 116.5055 15.73142960  4262
STARLINK-4712           
1 53798U 22111AB  22280.91667824 -.00023892  00000+0 -16619-3 0  9997
2 53798  53.2142 134.1747 0001087 109.9473 306.7892 15.73215346  4148
STARLINK-4710           
1 53799U 22111AC  22281.25001157 -.00136269  00000+0 -97964-3 0  9992
2 53799  53.2151 132.5234 0001167 106.5141  40.9336 15.73263522  4190
STARLINK-4720           
1 53800U 22111AD  22281.25001157 -.00076234  00000+0 -54187-3 0  9990
2 53800  53.2153 132.5246 0001122 106.2718  40.5066 15.73278198  4197
STARLINK-4715           
1 53801U 22111AE  22281.58334491  .00101243  00000+0  71918-3 0  9995
2 53801  53.2145 130.8687 0001305 114.0984 123.4719 15.73132726  4253
STARLINK-4726           
1 53802U 22111AF  22280.91667824 -.00014964  00000+0 -10247-3 0  9994
2 53802  53.2153 134.1717 0001144 104.1686 315.0012 15.73183600  4144
STARLINK-4727           
1 53803U 22111AG  22281.58334491 -.00041898  00000+0 -29579-3 0  9994
2 53803  53.2142 130.8647 0001196 118.3367 120.4778 15.73184963  4250
STARLINK-4729           
1 53804U 22111AH  22281.58334491 -.00007916  00000+0 -52099-4 0  9992
2 53804  53.2147 130.8670 0001431 123.0700 115.1418 15.73172586  4258
STARLINK-4763           
1 53805U 22111AJ  22281.58334491 -.00016903  00000+0 -11648-3 0  9993
2 53805  53.2143 130.8635 0001409 119.0457 120.3511 15.73155999  4256
STARLINK-4768           
1 53806U 22111AK  22280.91667824 -.00015333  00000+0 -10504-3 0  9995
2 53806  53.2161 134.1673 0001120 120.2873 301.8595 15.73198193  4141
BLUEWALKER-3            
1 53807U 22111AL  22281.10558641  .00003347  00000+0  17573-3 0  9997
2 53807  53.2033 144.0499 0013275  13.6142 346.5210 15.18413217  4128
FALCON 9 DEB            
1 53808U 22111AM  22280.83160755  .00608866  16605-3  14722-2 0  9993
2 53808  53.2000 132.2185 0008753 294.1092  65.9022 15.95754675  4257
FALCON 9 DEB            
1 53809U 22111AN  22280.85804479  .00284490  40759-4  93593-3 0  9999
2 53809  53.1991 132.3913 0006424 333.1866  26.8828 15.90021891  5301
FALCON 9 DEB            
1 53810U 22111AP  22281.28839075  .00255418  35149-4  80935-3 0  9990
2 53810  53.1999 130.0929 0008888 338.2627  21.8022 15.90747830  4320
FALCON 9 DEB            
1 53811U 22111AQ  22281.00798543  .00272585  00000+0  93849-3 0  9990
2 53811  53.1937 131.9062 0006896 300.0613  59.9729 15.88323910  4276
FALCON 9 DEB            
1 53812U 22111AR  22280.88580447  .00205967  00000+0  76312-3 0  9994
2 53812  53.1969 132.5720 0008474 316.1400  43.8952 15.86989476  4257
STARLINK-4749           
1 53818U 22114A   22281.25001157 -.00027475  00000+0 -19186-3 0  9995
2 53818  53.2150 163.7570 0000881 122.9422 311.1485 15.73215706  3600
STARLINK-4738           
1 53819U 22114B   22281.58334491  .00128555  00000+0  91035-3 0  9994
2 53819  53.2151 162.0983 0001365  91.5751  74.4572 15.73098899  3659
STARLINK-4758           
1 53820U 22114C   22281.25001157 -.00020576  00000+0 -14243-3 0  9992
2 53820  53.2149 163.7557 0001229 112.6682 322.0570 15.73219255  3606
STARLINK-4752           
1 53821U 22114D   22281.58334491 -.00002521  00000+0 -13547-4 0  9996
2 53821  53.2173 162.1033 0001267 100.9830  64.3715 15.73205038  3659
STARLINK-4713           
1 53822U 22114E   22280.56206978  .17043645  12483-4  88184-3 0  9991
2 53822  53.1893 163.7779 0035107  70.8516 296.7032 16.37848764  3538
STARLINK-4748           
1 53823U 22114F   22281.58334491 -.01196939  00000+0 -74645-2 0  9990
2 53823  53.2173 160.6004 0001630  36.3314 141.3475 15.78903802  3675
STARLINK-4757           
1 53824U 22114G   22281.25001157 -.00020909  00000+0 -14484-3 0  9993
2 53824  53.2166 163.7547 0000856  75.7068   2.6072 15.73215634  3605
STARLINK-4751           
1 53825U 22114H   22281.58334491  .00020707  00000+0  15190-3 0  9999
2 53825  53.2156 162.0989 0001044  99.3157  67.3393 15.73151202  3657
STARLINK-4756           
1 53826U 22114J   22281.58334491  .00076974  00000+0  54978-3 0  9994
2 53826  53.2156 162.0932 0001376 139.6376  29.9663 15.73117360  3656
STARLINK-4764           
1 53827U 22114K   22280.91667824 -.00037227  00000+0 -26183-3 0  9997
2 53827  53.2153 165.3959 0001279  57.3694 292.6042 15.73214722  3548
STARLINK-4760           
1 53828U 22114L   22281.58334491  .00091064  00000+0  64855-3 0  9998
2 53828  53.2153 162.0913 0000942 119.2037  51.0230 15.73116485  3653
STARLINK-4759           
1 53829U 22114M   22280.91667824 -.00006499  00000+0 -41898-4 0  9997
2 53829  53.2165 165.3997 0001282  62.2901 288.2583 15.73212887  3546
STARLINK-4761           
1 53830U 22114N   22281.25001157 -.00064819  00000+0 -46091-3 0  9997
2 53830  53.2154 163.7408 0001049 100.6688 341.7795 15.73204363  3602
STARLINK-4649           
1 53831U 22114P   22281.25001157  .00020484  00000+0  15026-3 0  9990
2 53831  53.2152 163.7456 0001200 105.1322 335.0162 15.73160106  3608
